start=new Date('2021-11-02T00:00:00.000Z').valueOf();
sats=[{"ELEMENT_SET_NO":"999","MEAN_MOTION_DDOT":"0.0000000000000","BSTAR":"0.00001085000000","RCS_SIZE":"LARGE","ECCENTRICITY":"0.00070320","MEAN_MOTION_DOT":"-0.00000122","EPHEMERIS_TYPE":"0","APOAPSIS":"552.083","GP_ID":"188694597","COUNTRY_CODE":"US","DECAY_DATE":null,"MEAN_ELEMENT_THEORY":"SGP4","ARG_OF_PERICENTER":"353.4015","OBJECT_ID":"2021-017AN","MEAN_ANOMALY":"6.6881","PERIAPSIS":"542.343","REF_FRAME":"TEME","TLE_LINE1":"1 47758U 21017AN  21305.83980049 -.00000122  00000-0  10850-4 0  9998","CENTER_NAME":"EARTH","SEMIMAJOR_AXIS":"6925.348","TIME_SYSTEM":"UTC","LAUNCH_DATE":"2021-03-04","EPOCH":"2021-11-01T20:09:18.762336","PERIOD":"95.592","REV_AT_EPOCH":"3830","TLE_LINE2":"2 47758  53.0570 144.2465 0007032 353.4015   6.6881 15.06400165 38303","RA_OF_ASC_NODE":"144.2465","OBJECT_NAME":"STARLINK-2176","OBJECT_TYPE":"PAYLOAD","FILE":"3196819","NORAD_CAT_ID":"47758","MEAN_MOTION":"15.06400165","SITE":"AFETR","CLASSIFICATION_TYPE":"U","INCLINATION":"53.0570"},{"BSTAR":"0.00782770000000","RCS_SIZE":"LARGE","MEAN_MOTION_DOT":"0.00429037","ECCENTRICITY":"0.00015250","ELEMENT_SET_NO":"999","MEAN_MOTION_DDOT":"0.0000000000000","COUNTRY_CODE":"US","MEAN_ELEMENT_THEORY":"SGP4","DECAY_DATE":null,"ARG_OF_PERICENTER":"75.9951","EPHEMERIS_TYPE":"0","GP_ID":"188694848","APOAPSIS":"425.592","EPOCH":"2021-11-01T21:35:20.759712","TLE_LINE2":"2 47759  53.0538 123.7558 0001525  75.9951 284.1225 15.47325868 38585","PERIOD":"93.064","REV_AT_EPOCH":"3858","TIME_SYSTEM":"UTC","TLE_LINE1":"1 47759U 21017AP  21305.89954583  .00429037  00000-0  78277-2 0  9993","SEMIMAJOR_AXIS":"6802.690","CENTER_NAME":"EARTH","OBJECT_ID":"2021-017AP","MEAN_ANOMALY":"284.1225","PERIAPSIS":"423.517","REF_FRAME":"TEME","LAUNCH_DATE":"2021-03-04","MEAN_MOTION":"15.47325868","NORAD_CAT_ID":"47759","INCLINATION":"53.0538","SITE":"AFETR","CLASSIFICATION_TYPE":"U","RA_OF_ASC_NODE":"123.7558","FILE":"3196819","OBJECT_NAME":"STARLINK-2177","OBJECT_TYPE":"PAYLOAD"},{"NORAD_CAT_ID":"47760","MEAN_MOTION":"15.06403178","CLASSIFICATION_TYPE":"U","SITE":"AFETR","INCLINATION":"53.0564","RA_OF_ASC_NODE":"154.0790","OBJECT_TYPE":"PAYLOAD","OBJECT_NAME":"STARLINK-2178","FILE":"3196819","EPOCH":"2021-11-01T20:50:26.524320","REV_AT_EPOCH":"3814","PERIOD":"95.592","TLE_LINE2":"2 47760  53.0564 154.0790 0001666  85.4634 274.6546 15.06403178 38149","PERIAPSIS":"546.050","REF_FRAME":"TEME","OBJECT_ID":"2021-017AQ","MEAN_ANOMALY":"274.6546","TLE_LINE1":"1 47760U 21017AQ  21305.86836255  .00001543  00000-0  12243-3 0  9997","TIME_SYSTEM":"UTC","SEMIMAJOR_AXIS":"6925.339","CENTER_NAME":"EARTH","LAUNCH_DATE":"2021-03-04","COUNTRY_CODE":"US","ARG_OF_PERICENTER":"85.4634","MEAN_ELEMENT_THEORY":"SGP4","DECAY_DATE":null,"EPHEMERIS_TYPE":"0","APOAPSIS":"548.358","GP_ID":"188695599","RCS_SIZE":"LARGE","BSTAR":"0.00012243000000","ECCENTRICITY":"0.00016660","MEAN_MOTION_DOT":"0.00001543","ELEMENT_SET_NO":"999","MEAN_MOTION_DDOT":"0.0000000000000"},{"ELEMENT_SET_NO":"999","MEAN_MOTION_DDOT":"0.0000000000000","BSTAR":"0.00003206900000","RCS_SIZE":"LARGE","MEAN_MOTION_DOT":"0.00000196","ECCENTRICITY":"0.00017980","EPHEMERIS_TYPE":"0","GP_ID":"188693847","APOAPSIS":"548.453","COUNTRY_CODE":"US","MEAN_ELEMENT_THEORY":"SGP4","DECAY_DATE":null,"ARG_OF_PERICENTER":"83.9764","SEMIMAJOR_AXIS":"6925.343","TLE_LINE1":"1 47761U 21017AR  21305.83243669  .00000196  00000-0  32069-4 0  9998","TIME_SYSTEM":"UTC","CENTER_NAME":"EARTH","MEAN_ANOMALY":"276.1430","OBJECT_ID":"2021-017AR","PERIAPSIS":"545.963","REF_FRAME":"TEME","LAUNCH_DATE":"2021-03-04","EPOCH":"2021-11-01T19:58:42.530016","TLE_LINE2":"2 47761  53.0537 144.2813 0001798  83.9764 276.1430 15.06401799 38258","PERIOD":"95.592","REV_AT_EPOCH":"3825","RA_OF_ASC_NODE":"144.2813","FILE":"3196819","OBJECT_NAME":"STARLINK-2179","OBJECT_TYPE":"PAYLOAD","MEAN_MOTION":"15.06401799","NORAD_CAT_ID":"47761","INCLINATION":"53.0537","SITE":"AFETR","CLASSIFICATION_TYPE":"U"},{"TLE_LINE2":"2 47762  53.0545 159.1722 0001941  70.5524 289.5674 15.06392723 38061","REV_AT_EPOCH":"3806","PERIOD":"95.593","EPOCH":"2021-11-01T20:35:09.448800","LAUNCH_DATE":"2021-03-04","TLE_LINE1":"1 47762U 21017AS  21305.85774825 -.00001367  00000-0 -72884-4 0  9996","SEMIMAJOR_AXIS":"6925.371","TIME_SYSTEM":"UTC","CENTER_NAME":"EARTH","OBJECT_ID":"2021-017AS","MEAN_ANOMALY":"289.5674","PERIAPSIS":"545.892","REF_FRAME":"TEME","INCLINATION":"53.0545","SITE":"AFETR","CLASSIFICATION_TYPE":"U","MEAN_MOTION":"15.06392723","NORAD_CAT_ID":"47762","FILE":"3196819","OBJECT_NAME":"STARLINK-2180","OBJECT_TYPE":"PAYLOAD","RA_OF_ASC_NODE":"159.1722","MEAN_MOTION_DOT":"-0.00001367","ECCENTRICITY":"0.00019410","BSTAR":"-0.00007288400000","RCS_SIZE":"LARGE","MEAN_MOTION_DDOT":"0.0000000000000","ELEMENT_SET_NO":"999","MEAN_ELEMENT_THEORY":"SGP4","DECAY_DATE":null,"ARG_OF_PERICENTER":"70.5524","COUNTRY_CODE":"US","GP_ID":"188694097","APOAPSIS":"548.580","EPHEMERIS_TYPE":"0"},{"BSTAR":"0.00001460100000","RCS_SIZE":"LARGE","MEAN_MOTION_DOT":"-0.00000064","ECCENTRICITY":"0.00019130","ELEMENT_SET_NO":"999","MEAN_MOTION_DDOT":"0.0000000000000","COUNTRY_CODE":"US","DECAY_DATE":null,"MEAN_ELEMENT_THEORY":"SGP4","ARG_OF_PERICENTER":"86.2971","EPHEMERIS_TYPE":"0","GP_ID":"188695349","APOAPSIS":"548.546","EPOCH":"2021-11-01T20:59:05.097984","TLE_LINE2":"2 47763  53.0691 148.9865 0001913  86.2971 273.8237 15.06397373 38187","REV_AT_EPOCH":"3818","PERIOD":"95.592","TLE_LINE1":"1 47763U 21017AT  21305.87436456 -.00000064  00000-0  14601-4 0  9999","SEMIMAJOR_AXIS":"6925.357","CENTER_NAME":"EARTH","TIME_SYSTEM":"UTC","OBJECT_ID":"2021-017AT","MEAN_ANOMALY":"273.8237","REF_FRAME":"TEME","PERIAPSIS":"545.897","LAUNCH_DATE":"2021-03-04","MEAN_MOTION":"15.06397373","NORAD_CAT_ID":"47763","INCLINATION":"53.0691","SITE":"AFETR","CLASSIFICATION_TYPE":"U","RA_OF_ASC_NODE":"148.9865","FILE":"3196819","OBJECT_NAME":"STARLINK-2181","OBJECT_TYPE":"PAYLOAD"},{"NORAD_CAT_ID":"47764","MEAN_MOTION":"15.06394005","CLASSIFICATION_TYPE":"U","SITE":"AFETR","INCLINATION":"53.0557","RA_OF_ASC_NODE":"161.6074","OBJECT_TYPE":"PAYLOAD","OBJECT_NAME":"STARLINK-2182","FILE":"3196301","EPOCH":"2021-11-01T07:30:58.515264","REV_AT_EPOCH":"3801","PERIOD":"95.593","TLE_LINE2":"2 47764  53.0557 161.6074 0001815  77.8177 282.3015 15.06394005 38018","REF_FRAME":"TEME","PERIAPSIS":"545.975","MEAN_ANOMALY":"282.3015","OBJECT_ID":"2021-017AU","SEMIMAJOR_AXIS":"6925.367","TLE_LINE1":"1 47764U 21017AU  21305.31317726 -.00000643  00000-0 -24268-4 0  9991","TIME_SYSTEM":"UTC","CENTER_NAME":"EARTH","LAUNCH_DATE":"2021-03-04","COUNTRY_CODE":"US","ARG_OF_PERICENTER":"77.8177","MEAN_ELEMENT_THEORY":"SGP4","DECAY_DATE":null,"EPHEMERIS_TYPE":"0","APOAPSIS":"548.489","GP_ID":"188660314","RCS_SIZE":"LARGE","BSTAR":"-0.00002426800000","ECCENTRICITY":"0.00018150","MEAN_MOTION_DOT":"-0.00000643","ELEMENT_SET_NO":"999","MEAN_MOTION_DDOT":"0.0000000000000"},{"SITE":"AFETR","CLASSIFICATION_TYPE":"U","INCLINATION":"53.0547","NORAD_CAT_ID":"47765","MEAN_MOTION":"15.06400389","OBJECT_NAME":"STARLINK-2183","OBJECT_TYPE":"PAYLOAD","FILE":"3196819","RA_OF_ASC_NODE":"139.3541","REV_AT_EPOCH":"3832","PERIOD":"95.592","TLE_LINE2":"2 47765  53.0547 139.3541 0001690  72.8644 287.2530 15.06400389 38327","EPOCH":"2021-11-01T19:30:10.549440","LAUNCH_DATE":"2021-03-04","OBJECT_ID":"2021-017AV","MEAN_ANOMALY":"287.2530","REF_FRAME":"TEME","PERIAPSIS":"546.042","SEMIMAJOR_AXIS":"6925.347","TLE_LINE1":"1 47765U 21017AV  21305.81262210 -.00000550  00000-0 -18048-4 0  9990","CENTER_NAME":"EARTH","TIME_SYSTEM":"UTC","MEAN_ELEMENT_THEORY":"SGP4","DECAY_DATE":null,"ARG_OF_PERICENTER":"72.8644","COUNTRY_CODE":"US","APOAPSIS":"548.383","GP_ID":"188694348","EPHEMERIS_TYPE":"0","ECCENTRICITY":"0.00016900","MEAN_MOTION_DOT":"-0.00000550","BSTAR":"-0.00001804800000","RCS_SIZE":"LARGE","MEAN_MOTION_DDOT":"0.0000000000000","ELEMENT_SET_NO":"999"},{"MEAN_MOTION_DDOT":"0.0000000000000","ELEMENT_SET_NO":"999","ECCENTRICITY":"0.00016980","MEAN_MOTION_DOT":"0.00001529","BSTAR":"0.00012153000000","RCS_SIZE":"LARGE","APOAPSIS":"548.379","GP_ID":"188694598","EPHEMERIS_TYPE":"0","DECAY_DATE":null,"MEAN_ELEMENT_THEORY":"SGP4","ARG_OF_PERICENTER":"78.2156","COUNTRY_CODE":"US","LAUNCH_DATE":"2021-03-04","OBJECT_ID":"2021-017AW","MEAN_ANOMALY":"281.9023","PERIAPSIS":"546.027","REF_FRAME":"TEME","TIME_SYSTEM":"UTC","TLE_LINE1":"1 47766U 21017AW  21305.86237784  .00001529  00000-0  12153-3 0  9999","SEMIMAJOR_AXIS":"6925.338","CENTER_NAME":"EARTH","REV_AT_EPOCH":"3803","PERIOD":"95.592","TLE_LINE2":"2 47766  53.0549 159.1398 0001698  78.2156 281.9023 15.06403524 38036","EPOCH":"2021-11-01T20:41:49.445376","OBJECT_NAME":"STARLINK-2184","OBJECT_TYPE":"PAYLOAD","FILE":"3196819","RA_OF_ASC_NODE":"159.1398","SITE":"AFETR","CLASSIFICATION_TYPE":"U","INCLINATION":"53.0549","NORAD_CAT_ID":"47766","MEAN_MOTION":"15.06403524"},{"MEAN_MOTION":"15.06395510","NORAD_CAT_ID":"47767","INCLINATION":"53.0553","CLASSIFICATION_TYPE":"U","SITE":"AFETR","RA_OF_ASC_NODE":"144.3241","FILE":"3196819","OBJECT_TYPE":"PAYLOAD","OBJECT_NAME":"STARLINK-2185","EPOCH":"2021-11-01T19:42:47.078208","TLE_LINE2":"2 47767  53.0553 144.3241 0001577  85.4595 274.6575 15.06395510 38304","PERIOD":"95.592","REV_AT_EPOCH":"3830","TLE_LINE1":"1 47767U 21017AX  21305.82137822  .00001492  00000-0  11907-3 0  9993","TIME_SYSTEM":"UTC","SEMIMAJOR_AXIS":"6925.362","CENTER_NAME":"EARTH","REF_FRAME":"TEME","PERIAPSIS":"546.135","OBJECT_ID":"2021-017AX","MEAN_ANOMALY":"274.6575","LAUNCH_DATE":"2021-03-04","COUNTRY_CODE":"US","ARG_OF_PERICENTER":"85.4595","DECAY_DATE":null,"MEAN_ELEMENT_THEORY":"SGP4","EPHEMERIS_TYPE":"0","GP_ID":"188694849","APOAPSIS":"548.319","RCS_SIZE":"LARGE","BSTAR":"0.00011907000000","MEAN_MOTION_DOT":"0.00001492","ECCENTRICITY":"0.00015770","ELEMENT_SET_NO":"999","MEAN_MOTION_DDOT":"0.0000000000000"}];
